<?xml version="1.0" encoding="UTF-8" standalone="no" ?>
<gpx xmlns="http://www.topografix.com/GPX/1/1" creator="http://nakarte.me" xmlns:xsi="http://www.w3.org/2001/XMLSchema-instance" xsi:schemaLocation="http://www.topografix.com/GPX/1/1 http://www.topografix.com/GPX/1/1/gpx.xsd" version="1.1">
	<metadata>
		<time>2026-05-29T10:25:16.191Z</time>
	</metadata>
	<trk>
		<name>Северный парк — оз. Песчаное — Геокупол.gpx-LINESTRING</name>
		<trkseg>
			<trkpt lat="56.463529" lon="84.912412"><ele>74.9</ele><time>1970-01-01T00:00:01.000Z</time></trkpt>
			<trkpt lat="56.463336" lon="84.912541"><ele>74.9</ele><time>1970-01-01T00:00:01.000Z</time></trkpt>
			<trkpt lat="56.463271" lon="84.912241"><ele>75.4</ele><time>1970-01-01T00:00:01.000Z</time></trkpt>
			<trkpt lat="56.463185" lon="84.912262"><ele>75.5</ele><time>1970-01-01T00:00:01.000Z</time></trkpt>
			<trkpt lat="56.463100" lon="84.912155"><ele>75.7</ele><time>1970-01-01T00:00:01.000Z</time></trkpt>
			<trkpt lat="56.462821" lon="84.911318"><ele>75.3</ele><time>1970-01-01T00:00:01.000Z</time></trkpt>
			<trkpt lat="56.462413" lon="84.910524"><ele>74.1</ele><time>1970-01-01T00:00:01.000Z</time></trkpt>
			<trkpt lat="56.462413" lon="84.910202"><ele>74.0</ele><time>1970-01-01T00:00:01.000Z</time></trkpt>
			<trkpt lat="56.462327" lon="84.910031"><ele>74.0</ele><time>1970-01-01T00:00:01.000Z</time></trkpt>
			<trkpt lat="56.462177" lon="84.910116"><ele>74.0</ele><time>1970-01-01T00:00:01.000Z</time></trkpt>
			<trkpt lat="56.461683" lon="84.909602"><ele>73.5</ele><time>1970-01-01T00:00:01.000Z</time></trkpt>
			<trkpt lat="56.460975" lon="84.909001"><ele>74.5</ele><time>1970-01-01T00:00:01.000Z</time></trkpt>
			<trkpt lat="56.460374" lon="84.908400"><ele>72.5</ele><time>1970-01-01T00:00:01.000Z</time></trkpt>
			<trkpt lat="56.459967" lon="84.907799"><ele>71.6</ele><time>1970-01-01T00:00:01.000Z</time></trkpt>
			<trkpt lat="56.459881" lon="84.907391"><ele>72.0</ele><time>1970-01-01T00:00:01.000Z</time></trkpt>
			<trkpt lat="56.459881" lon="84.907134"><ele>72.3</ele><time>1970-01-01T00:00:01.000Z</time></trkpt>
			<trkpt lat="56.460010" lon="84.906855"><ele>72.8</ele><time>1970-01-01T00:00:01.000Z</time></trkpt>
			<trkpt lat="56.460160" lon="84.906769"><ele>72.9</ele><time>1970-01-01T00:00:01.000Z</time></trkpt>
			<trkpt lat="56.461597" lon="84.902542"><ele>76.1</ele><time>1970-01-01T00:00:01.000Z</time></trkpt>
			<trkpt lat="56.462263" lon="84.900847"><ele>79.7</ele><time>1970-01-01T00:00:01.000Z</time></trkpt>
			<trkpt lat="56.462263" lon="84.900654"><ele>80.4</ele><time>1970-01-01T00:00:01.000Z</time></trkpt>
			<trkpt lat="56.461705" lon="84.899152"><ele>84.0</ele><time>1970-01-01T00:00:01.000Z</time></trkpt>
			<trkpt lat="56.461597" lon="84.899023"><ele>84.1</ele><time>1970-01-01T00:00:01.000Z</time></trkpt>
			<trkpt lat="56.460997" lon="84.897349"><ele>88.5</ele><time>1970-01-01T00:00:01.000Z</time></trkpt>
			<trkpt lat="56.460846" lon="84.896770"><ele>91.5</ele><time>1970-01-01T00:00:01.000Z</time></trkpt>
			<trkpt lat="56.459473" lon="84.892993"><ele>94.8</ele><time>1970-01-01T00:00:01.000Z</time></trkpt>
			<trkpt lat="56.458465" lon="84.889968"><ele>102.2</ele><time>1970-01-01T00:00:01.000Z</time></trkpt>
			<trkpt lat="56.458250" lon="84.889517"><ele>102.5</ele><time>1970-01-01T00:00:01.000Z</time></trkpt>
			<trkpt lat="56.458272" lon="84.888916"><ele>102.5</ele><time>1970-01-01T00:00:01.000Z</time></trkpt>
			<trkpt lat="56.458829" lon="84.887414"><ele>103.2</ele><time>1970-01-01T00:00:01.000Z</time></trkpt>
			<trkpt lat="56.457907" lon="84.884517"><ele>101.8</ele><time>1970-01-01T00:00:01.000Z</time></trkpt>
			<trkpt lat="56.457928" lon="84.884303"><ele>101.3</ele><time>1970-01-01T00:00:01.000Z</time></trkpt>
			<trkpt lat="56.457757" lon="84.883895"><ele>99.8</ele><time>1970-01-01T00:00:01.000Z</time></trkpt>
			<trkpt lat="56.457671" lon="84.883595"><ele>98.7</ele><time>1970-01-01T00:00:01.000Z</time></trkpt>
			<trkpt lat="56.457778" lon="84.882779"><ele>93.0</ele><time>1970-01-01T00:00:01.000Z</time></trkpt>
			<trkpt lat="56.458572" lon="84.883337"><ele>91.3</ele><time>1970-01-01T00:00:01.000Z</time></trkpt>
			<trkpt lat="56.458787" lon="84.883530"><ele>93.7</ele><time>1970-01-01T00:00:01.000Z</time></trkpt>
			<trkpt lat="56.459087" lon="84.883187"><ele>90.8</ele><time>1970-01-01T00:00:01.000Z</time></trkpt>
			<trkpt lat="56.459430" lon="84.883037"><ele>91.7</ele><time>1970-01-01T00:00:01.000Z</time></trkpt>
			<trkpt lat="56.459688" lon="84.882586"><ele>90.9</ele><time>1970-01-01T00:00:01.000Z</time></trkpt>
			<trkpt lat="56.460053" lon="84.881642"><ele>93.5</ele><time>1970-01-01T00:00:01.000Z</time></trkpt>
			<trkpt lat="56.461683" lon="84.879647"><ele>99.6</ele><time>1970-01-01T00:00:01.000Z</time></trkpt>
			<trkpt lat="56.462241" lon="84.879690"><ele>100.0</ele><time>1970-01-01T00:00:01.000Z</time></trkpt>
			<trkpt lat="56.462542" lon="84.879647"><ele>99.7</ele><time>1970-01-01T00:00:01.000Z</time></trkpt>
			<trkpt lat="56.462971" lon="84.879346"><ele>97.9</ele><time>1970-01-01T00:00:01.000Z</time></trkpt>
			<trkpt lat="56.463378" lon="84.879303"><ele>99.0</ele><time>1970-01-01T00:00:01.000Z</time></trkpt>
			<trkpt lat="56.463958" lon="84.878724"><ele>99.0</ele><time>1970-01-01T00:00:01.000Z</time></trkpt>
			<trkpt lat="56.464258" lon="84.878230"><ele>97.5</ele><time>1970-01-01T00:00:01.000Z</time></trkpt>
			<trkpt lat="56.464516" lon="84.877973"><ele>97.1</ele><time>1970-01-01T00:00:01.000Z</time></trkpt>
			<trkpt lat="56.465138" lon="84.876771"><ele>96.8</ele><time>1970-01-01T00:00:01.000Z</time></trkpt>
			<trkpt lat="56.465460" lon="84.875741"><ele>97.4</ele><time>1970-01-01T00:00:01.000Z</time></trkpt>
			<trkpt lat="56.465546" lon="84.874926"><ele>97.2</ele><time>1970-01-01T00:00:01.000Z</time></trkpt>
			<trkpt lat="56.465546" lon="84.873445"><ele>97.7</ele><time>1970-01-01T00:00:01.000Z</time></trkpt>
			<trkpt lat="56.465438" lon="84.872051"><ele>98.5</ele><time>1970-01-01T00:00:01.000Z</time></trkpt>
			<trkpt lat="56.465310" lon="84.871128"><ele>98.2</ele><time>1970-01-01T00:00:01.000Z</time></trkpt>
			<trkpt lat="56.465267" lon="84.869755"><ele>99.3</ele><time>1970-01-01T00:00:01.000Z</time></trkpt>
			<trkpt lat="56.464752" lon="84.866472"><ele>100.1</ele><time>1970-01-01T00:00:01.000Z</time></trkpt>
			<trkpt lat="56.464602" lon="84.865892"><ele>99.5</ele><time>1970-01-01T00:00:01.000Z</time></trkpt>
			<trkpt lat="56.464408" lon="84.865420"><ele>99.5</ele><time>1970-01-01T00:00:01.000Z</time></trkpt>
			<trkpt lat="56.464129" lon="84.864240"><ele>99.1</ele><time>1970-01-01T00:00:01.000Z</time></trkpt>
			<trkpt lat="56.464065" lon="84.863704"><ele>98.6</ele><time>1970-01-01T00:00:01.000Z</time></trkpt>
			<trkpt lat="56.463829" lon="84.863296"><ele>98.5</ele><time>1970-01-01T00:00:01.000Z</time></trkpt>
			<trkpt lat="56.462649" lon="84.860463"><ele>100.9</ele><time>1970-01-01T00:00:01.000Z</time></trkpt>
			<trkpt lat="56.462263" lon="84.859884"><ele>100.4</ele><time>1970-01-01T00:00:01.000Z</time></trkpt>
			<trkpt lat="56.461791" lon="84.859369"><ele>99.3</ele><time>1970-01-01T00:00:01.000Z</time></trkpt>
			<trkpt lat="56.460739" lon="84.857137"><ele>100.8</ele><time>1970-01-01T00:00:01.000Z</time></trkpt>
			<trkpt lat="56.460739" lon="84.855528"><ele>103.2</ele><time>1970-01-01T00:00:01.000Z</time></trkpt>
			<trkpt lat="56.460310" lon="84.854219"><ele>102.8</ele><time>1970-01-01T00:00:01.000Z</time></trkpt>
			<trkpt lat="56.459259" lon="84.851644"><ele>104.2</ele><time>1970-01-01T00:00:01.000Z</time></trkpt>
			<trkpt lat="56.458915" lon="84.851280"><ele>102.6</ele><time>1970-01-01T00:00:01.000Z</time></trkpt>
			<trkpt lat="56.458229" lon="84.850421"><ele>102.5</ele><time>1970-01-01T00:00:01.000Z</time></trkpt>
			<trkpt lat="56.457671" lon="84.849992"><ele>101.9</ele><time>1970-01-01T00:00:01.000Z</time></trkpt>
			<trkpt lat="56.456576" lon="84.845786"><ele>110.5</ele><time>1970-01-01T00:00:01.000Z</time></trkpt>
			<trkpt lat="56.454817" lon="84.840679"><ele>112.2</ele><time>1970-01-01T00:00:01.000Z</time></trkpt>
			<trkpt lat="56.453637" lon="84.837418"><ele>112.3</ele><time>1970-01-01T00:00:01.000Z</time></trkpt>
			<trkpt lat="56.449646" lon="84.826067"><ele>111.2</ele><time>1970-01-01T00:00:01.000Z</time></trkpt>
			<trkpt lat="56.449860" lon="84.825831"><ele>111.0</ele><time>1970-01-01T00:00:01.000Z</time></trkpt>
			<trkpt lat="56.450289" lon="84.826024"><ele>111.9</ele><time>1970-01-01T00:00:01.000Z</time></trkpt>
			<trkpt lat="56.450568" lon="84.825938"><ele>112.5</ele><time>1970-01-01T00:00:01.000Z</time></trkpt>
			<trkpt lat="56.451105" lon="84.825638"><ele>113.3</ele><time>1970-01-01T00:00:01.000Z</time></trkpt>
			<trkpt lat="56.451298" lon="84.825402"><ele>113.3</ele><time>1970-01-01T00:00:01.000Z</time></trkpt>
			<trkpt lat="56.451190" lon="84.824779"><ele>112.3</ele><time>1970-01-01T00:00:01.000Z</time></trkpt>
		</trkseg>
	</trk>
</gpx>