<?xml version="1.0" encoding="UTF-8" standalone="no" ?>
<gpx xmlns="http://www.topografix.com/GPX/1/1" creator="http://nakarte.me" xmlns:xsi="http://www.w3.org/2001/XMLSchema-instance" xsi:schemaLocation="http://www.topografix.com/GPX/1/1 http://www.topografix.com/GPX/1/1/gpx.xsd" version="1.1">
	<metadata>
		<time>2026-05-29T10:25:29.493Z</time>
	</metadata>
	<trk>
		<name>Тимирязево — оз. Песчаное — Геокупол.gpx-LINESTRING</name>
		<trkseg>
			<trkpt lat="56.463314" lon="84.897135"><ele>81.2</ele><time>1970-01-01T00:00:01.000Z</time></trkpt>
			<trkpt lat="56.463421" lon="84.896984"><ele>80.5</ele><time>1970-01-01T00:00:01.000Z</time></trkpt>
			<trkpt lat="56.462434" lon="84.894259"><ele>98.9</ele><time>1970-01-01T00:00:01.000Z</time></trkpt>
			<trkpt lat="56.461597" lon="84.891792"><ele>89.7</ele><time>1970-01-01T00:00:01.000Z</time></trkpt>
			<trkpt lat="56.460911" lon="84.890075"><ele>87.5</ele><time>1970-01-01T00:00:01.000Z</time></trkpt>
			<trkpt lat="56.460653" lon="84.889260"><ele>89.6</ele><time>1970-01-01T00:00:01.000Z</time></trkpt>
			<trkpt lat="56.460224" lon="84.888273"><ele>98.7</ele><time>1970-01-01T00:00:01.000Z</time></trkpt>
			<trkpt lat="56.458894" lon="84.884324"><ele>101.2</ele><time>1970-01-01T00:00:01.000Z</time></trkpt>
			<trkpt lat="56.458829" lon="84.883702"><ele>95.6</ele><time>1970-01-01T00:00:01.000Z</time></trkpt>
			<trkpt lat="56.458894" lon="84.883380"><ele>92.2</ele><time>1970-01-01T00:00:01.000Z</time></trkpt>
			<trkpt lat="56.459087" lon="84.883187"><ele>90.8</ele><time>1970-01-01T00:00:01.000Z</time></trkpt>
			<trkpt lat="56.459430" lon="84.883037"><ele>91.7</ele><time>1970-01-01T00:00:01.000Z</time></trkpt>
			<trkpt lat="56.459688" lon="84.882586"><ele>90.9</ele><time>1970-01-01T00:00:01.000Z</time></trkpt>
			<trkpt lat="56.460053" lon="84.881642"><ele>93.5</ele><time>1970-01-01T00:00:01.000Z</time></trkpt>
			<trkpt lat="56.461683" lon="84.879647"><ele>99.6</ele><time>1970-01-01T00:00:01.000Z</time></trkpt>
			<trkpt lat="56.462241" lon="84.879690"><ele>100.0</ele><time>1970-01-01T00:00:01.000Z</time></trkpt>
			<trkpt lat="56.462542" lon="84.879647"><ele>99.7</ele><time>1970-01-01T00:00:01.000Z</time></trkpt>
			<trkpt lat="56.462971" lon="84.879346"><ele>97.9</ele><time>1970-01-01T00:00:01.000Z</time></trkpt>
			<trkpt lat="56.463378" lon="84.879303"><ele>99.0</ele><time>1970-01-01T00:00:01.000Z</time></trkpt>
			<trkpt lat="56.463958" lon="84.878724"><ele>99.0</ele><time>1970-01-01T00:00:01.000Z</time></trkpt>
			<trkpt lat="56.464258" lon="84.878230"><ele>97.5</ele><time>1970-01-01T00:00:01.000Z</time></trkpt>
			<trkpt lat="56.464516" lon="84.877973"><ele>97.1</ele><time>1970-01-01T00:00:01.000Z</time></trkpt>
			<trkpt lat="56.465138" lon="84.876771"><ele>96.8</ele><time>1970-01-01T00:00:01.000Z</time></trkpt>
			<trkpt lat="56.465460" lon="84.875741"><ele>97.4</ele><time>1970-01-01T00:00:01.000Z</time></trkpt>
			<trkpt lat="56.465546" lon="84.874926"><ele>97.2</ele><time>1970-01-01T00:00:01.000Z</time></trkpt>
			<trkpt lat="56.465546" lon="84.873445"><ele>97.7</ele><time>1970-01-01T00:00:01.000Z</time></trkpt>
			<trkpt lat="56.465438" lon="84.872051"><ele>98.5</ele><time>1970-01-01T00:00:01.000Z</time></trkpt>
			<trkpt lat="56.465310" lon="84.871128"><ele>98.2</ele><time>1970-01-01T00:00:01.000Z</time></trkpt>
			<trkpt lat="56.465267" lon="84.869755"><ele>99.3</ele><time>1970-01-01T00:00:01.000Z</time></trkpt>
			<trkpt lat="56.464752" lon="84.866472"><ele>100.1</ele><time>1970-01-01T00:00:01.000Z</time></trkpt>
			<trkpt lat="56.464602" lon="84.865892"><ele>99.5</ele><time>1970-01-01T00:00:01.000Z</time></trkpt>
			<trkpt lat="56.464408" lon="84.865420"><ele>99.5</ele><time>1970-01-01T00:00:01.000Z</time></trkpt>
			<trkpt lat="56.464129" lon="84.864240"><ele>99.1</ele><time>1970-01-01T00:00:01.000Z</time></trkpt>
			<trkpt lat="56.464065" lon="84.863704"><ele>98.6</ele><time>1970-01-01T00:00:01.000Z</time></trkpt>
			<trkpt lat="56.463829" lon="84.863296"><ele>98.5</ele><time>1970-01-01T00:00:01.000Z</time></trkpt>
			<trkpt lat="56.462649" lon="84.860463"><ele>100.9</ele><time>1970-01-01T00:00:01.000Z</time></trkpt>
			<trkpt lat="56.462263" lon="84.859884"><ele>100.4</ele><time>1970-01-01T00:00:01.000Z</time></trkpt>
			<trkpt lat="56.461791" lon="84.859369"><ele>99.3</ele><time>1970-01-01T00:00:01.000Z</time></trkpt>
			<trkpt lat="56.460739" lon="84.857137"><ele>100.8</ele><time>1970-01-01T00:00:01.000Z</time></trkpt>
			<trkpt lat="56.460739" lon="84.855528"><ele>103.2</ele><time>1970-01-01T00:00:01.000Z</time></trkpt>
			<trkpt lat="56.460310" lon="84.854219"><ele>102.8</ele><time>1970-01-01T00:00:01.000Z</time></trkpt>
			<trkpt lat="56.459259" lon="84.851644"><ele>104.2</ele><time>1970-01-01T00:00:01.000Z</time></trkpt>
			<trkpt lat="56.458915" lon="84.851280"><ele>102.6</ele><time>1970-01-01T00:00:01.000Z</time></trkpt>
			<trkpt lat="56.458229" lon="84.850421"><ele>102.5</ele><time>1970-01-01T00:00:01.000Z</time></trkpt>
			<trkpt lat="56.457671" lon="84.849992"><ele>101.9</ele><time>1970-01-01T00:00:01.000Z</time></trkpt>
			<trkpt lat="56.456576" lon="84.845786"><ele>110.5</ele><time>1970-01-01T00:00:01.000Z</time></trkpt>
			<trkpt lat="56.454817" lon="84.840679"><ele>112.2</ele><time>1970-01-01T00:00:01.000Z</time></trkpt>
			<trkpt lat="56.453637" lon="84.837418"><ele>112.3</ele><time>1970-01-01T00:00:01.000Z</time></trkpt>
			<trkpt lat="56.449646" lon="84.826067"><ele>111.2</ele><time>1970-01-01T00:00:01.000Z</time></trkpt>
			<trkpt lat="56.449860" lon="84.825831"><ele>111.0</ele><time>1970-01-01T00:00:01.000Z</time></trkpt>
			<trkpt lat="56.450289" lon="84.826024"><ele>111.9</ele><time>1970-01-01T00:00:01.000Z</time></trkpt>
			<trkpt lat="56.450568" lon="84.825938"><ele>112.5</ele><time>1970-01-01T00:00:01.000Z</time></trkpt>
			<trkpt lat="56.451105" lon="84.825638"><ele>113.3</ele><time>1970-01-01T00:00:01.000Z</time></trkpt>
			<trkpt lat="56.451298" lon="84.825402"><ele>113.3</ele><time>1970-01-01T00:00:01.000Z</time></trkpt>
			<trkpt lat="56.451190" lon="84.824779"><ele>112.3</ele><time>1970-01-01T00:00:01.000Z</time></trkpt>
		</trkseg>
	</trk>
</gpx>